{
  "type": "FeatureCollection",
  "features": [
    {
      "type": "Feature",
      "properties": {
        "norad_id": 30004,
        "name": "FENGYUN 1C DEB",
        "group": "fengyun-1c-debris",
        "lat": -6.278798014615897,
        "lon": 170.4375866639087,
        "alt_km": 812.0775437584498,
        "timestamp": "2025-12-14T05:42:18.733091+00:00",
        "meta_object_name": "FENGYUN 1C DEB",
        "meta_object_id": "1999-025MD",
        "meta_epoch": "2025-12-13T11:13:56.468352",
        "meta_mean_motion": 14.17063624,
        "meta_eccentricity": 0.0038595,
        "meta_inclination": 99.2235,
        "meta_ra_of_asc_node": 168.6153,
        "meta_arg_of_pericenter": 340.7958,
        "meta_mean_anomaly": 48.4324,
        "meta_ephemeris_type": 0,
        "meta_classification_type": "U",
        "meta_norad_cat_id": 30004,
        "meta_element_set_no": 999,
        "meta_rev_at_epoch": 97317,
        "meta_bstar": 0.0010815626,
        "meta_mean_motion_dot": 2.145e-05,
        "meta_mean_motion_ddot": 0,
        "tle_line1": "1 30004U 99025MD  25347.46801468  .00002145  00000+0  10816-2 0  9999",
        "tle_line2": "2 30004  99.2235 168.6153 0038595 340.7958  48.4324 14.17063624973171"
      },
      "geometry": {
        "type": "Point",
        "coordinates": [
          170.4375866639087,
          -6.278798014615897
        ]
      }
    },
    {
      "type": "Feature",
      "properties": {
        "norad_id": 30005,
        "name": "FENGYUN 1C DEB",
        "group": "fengyun-1c-debris",
        "lat": -20.49948208538198,
        "lon": 126.58561875986382,
        "alt_km": 1154.180646853386,
        "timestamp": "2025-12-14T05:42:18.733102+00:00",
        "meta_object_name": "FENGYUN 1C DEB",
        "meta_object_id": "1999-025ME",
        "meta_epoch": "2025-12-13T09:13:13.266912",
        "meta_mean_motion": 13.5221892,
        "meta_eccentricity": 0.0346791,
        "meta_inclination": 99.3016,
        "meta_ra_of_asc_node": 309.2966,
        "meta_arg_of_pericenter": 91.7384,
        "meta_mean_anomaly": 272.3499,
        "meta_ephemeris_type": 0,
        "meta_classification_type": "U",
        "meta_norad_cat_id": 30005,
        "meta_element_set_no": 999,
        "meta_rev_at_epoch": 92955,
        "meta_bstar": 0.0017015864,
        "meta_mean_motion_dot": 1.599e-05,
        "meta_mean_motion_ddot": 0,
        "tle_line1": "1 30005U 99025ME  25347.38418133  .00001599  00000+0  17016-2 0  9995",
        "tle_line2": "2 30005  99.3016 309.2966 0346791  91.7384 272.3499 13.52218920929554"
      },
      "geometry": {
        "type": "Point",
        "coordinates": [
          126.58561875986382,
          -20.49948208538198
        ]
      }
    },
    {
      "type": "Feature",
      "properties": {
        "norad_id": 30007,
        "name": "FENGYUN 1C DEB",
        "group": "fengyun-1c-debris",
        "lat": 78.8664187799099,
        "lon": 124.88810810830736,
        "alt_km": 795.8301714643685,
        "timestamp": "2025-12-14T05:42:18.733112+00:00",
        "meta_object_name": "FENGYUN 1C DEB",
        "meta_object_id": "1999-025MG",
        "meta_epoch": "2025-12-13T16:02:53.086272",
        "meta_mean_motion": 14.25428073,
        "meta_eccentricity": 0.00656199,
        "meta_inclination": 99.1777,
        "meta_ra_of_asc_node": 249.0594,
        "meta_arg_of_pericenter": 12.2162,
        "meta_mean_anomaly": 44.8815,
        "meta_ephemeris_type": 0,
        "meta_classification_type": "U",
        "meta_norad_cat_id": 30007,
        "meta_element_set_no": 999,
        "meta_rev_at_epoch": 97369,
        "meta_bstar": 0.0021954817,
        "meta_mean_motion_dot": 5.255e-05,
        "meta_mean_motion_ddot": 0,
        "tle_line1": "1 30007U 99025MG  25347.66866998  .00005255  00000+0  21955-2 0  9994",
        "tle_line2": "2 30007  99.1777 249.0594 0065619  12.2162  44.8815 14.25428073973696"
      },
      "geometry": {
        "type": "Point",
        "coordinates": [
          124.88810810830736,
          78.8664187799099
        ]
      }
    },
    {
      "type": "Feature",
      "properties": {
        "norad_id": 30008,
        "name": "FENGYUN 1C DEB",
        "group": "fengyun-1c-debris",
        "lat": -31.90873818166173,
        "lon": 118.92332229433073,
        "alt_km": 653.7740794022675,
        "timestamp": "2025-12-14T05:42:18.733123+00:00",
        "meta_object_name": "FENGYUN 1C DEB",
        "meta_object_id": "1999-025MH",
        "meta_epoch": "2025-12-13T11:18:26.178912",
        "meta_mean_motion": 14.66341862,
        "meta_eccentricity": 0.00389496,
        "meta_inclination": 99.3684,
        "meta_ra_of_asc_node": 303.9495,
        "meta_arg_of_pericenter": 189.7471,
        "meta_mean_anomaly": 297.9905,
        "meta_ephemeris_type": 0,
        "meta_classification_type": "U",
        "meta_norad_cat_id": 30008,
        "meta_element_set_no": 999,
        "meta_rev_at_epoch": 99070,
        "meta_bstar": 0.0037761666,
        "meta_mean_motion_dot": 0.00021087,
        "meta_mean_motion_ddot": 0,
        "tle_line1": "1 30008U 99025MH  25347.47113633  .00021087  00000+0  37762-2 0  9999",
        "tle_line2": "2 30008  99.3684 303.9495 0038949 189.7471 297.9905 14.66341862990702"
      },
      "geometry": {
        "type": "Point",
        "coordinates": [
          118.92332229433073,
          -31.90873818166173
        ]
      }
    },
    {
      "type": "Feature",
      "properties": {
        "norad_id": 30009,
        "name": "FENGYUN 1C DEB",
        "group": "fengyun-1c-debris",
        "lat": -58.47893571055906,
        "lon": 58.15196422731209,
        "alt_km": 844.1848612835747,
        "timestamp": "2025-12-14T05:42:18.733133+00:00",
        "meta_object_name": "FENGYUN 1C DEB",
        "meta_object_id": "1999-025MJ",
        "meta_epoch": "2025-12-13T16:18:39.711456",
        "meta_mean_motion": 14.04858571,
        "meta_eccentricity": 0.006382,
        "meta_inclination": 99.0149,
        "meta_ra_of_asc_node": 42.5962,
        "meta_arg_of_pericenter": 332.6653,
        "meta_mean_anomaly": 27.1161,
        "meta_ephemeris_type": 0,
        "meta_classification_type": "U",
        "meta_norad_cat_id": 30009,
        "meta_element_set_no": 999,
        "meta_rev_at_epoch": 96496,
        "meta_bstar": 0.00098340084,
        "meta_mean_motion_dot": 1.563e-05,
        "meta_mean_motion_ddot": 0,
        "tle_line1": "1 30009U 99025MJ  25347.67962629  .00001563  00000+0  98340-3 0  9996",
        "tle_line2": "2 30009  99.0149  42.5962 0063820 332.6653  27.1161 14.04858571964966"
      },
      "geometry": {
        "type": "Point",
        "coordinates": [
          58.15196422731209,
          -58.47893571055906
        ]
      }
    },
    {
      "type": "Feature",
      "properties": {
        "norad_id": 30010,
        "name": "FENGYUN 1C DEB",
        "group": "fengyun-1c-debris",
        "lat": -59.854179887955716,
        "lon": -15.520195158147066,
        "alt_km": 773.2098976240168,
        "timestamp": "2025-12-14T05:42:18.733143+00:00",
        "meta_object_name": "FENGYUN 1C DEB",
        "meta_object_id": "1999-025MK",
        "meta_epoch": "2025-12-13T11:58:52.892256",
        "meta_mean_motion": 14.24988341,
        "meta_eccentricity": 0.00727131,
        "meta_inclination": 99.0697,
        "meta_ra_of_asc_node": 179.6819,
        "meta_arg_of_pericenter": 207.1851,
        "meta_mean_anomaly": 207.0744,
        "meta_ephemeris_type": 0,
        "meta_classification_type": "U",
        "meta_norad_cat_id": 30010,
        "meta_element_set_no": 999,
        "meta_rev_at_epoch": 98271,
        "meta_bstar": 0.00021140141,
        "meta_mean_motion_dot": 4.61e-06,
        "meta_mean_motion_ddot": 0,
        "tle_line1": "1 30010U 99025MK  25347.49922329  .00000461  00000+0  21140-3 0  9991",
        "tle_line2": "2 30010  99.0697 179.6819 0072713 207.1851 207.0744 14.24988341982716"
      },
      "geometry": {
        "type": "Point",
        "coordinates": [
          -15.520195158147066,
          -59.854179887955716
        ]
      }
    },
    {
      "type": "Feature",
      "properties": {
        "norad_id": 30012,
        "name": "FENGYUN 1C DEB",
        "group": "fengyun-1c-debris",
        "lat": -17.936651270858732,
        "lon": 44.579595740842855,
        "alt_km": 1042.4085047934223,
        "timestamp": "2025-12-14T05:42:18.733154+00:00",
        "meta_object_name": "FENGYUN 1C DEB",
        "meta_object_id": "1999-025MM",
        "meta_epoch": "2025-12-13T16:29:33.831168",
        "meta_mean_motion": 13.85766134,
        "meta_eccentricity": 0.01370856,
        "meta_inclination": 99.4643,
        "meta_ra_of_asc_node": 40.9285,
        "meta_arg_of_pericenter": 143.1727,
        "meta_mean_anomaly": 334.3483,
        "meta_ephemeris_type": 0,
        "meta_classification_type": "U",
        "meta_norad_cat_id": 30012,
        "meta_element_set_no": 999,
        "meta_rev_at_epoch": 95561,
        "meta_bstar": 0.00036862331,
        "meta_mean_motion_dot": 4.1e-06,
        "meta_mean_motion_ddot": 0,
        "tle_line1": "1 30012U 99025MM  25347.68719712  .00000410  00000+0  36862-3 0  9995",
        "tle_line2": "2 30012  99.4643  40.9285 0137085 143.1727 334.3483 13.85766134955618"
      },
      "geometry": {
        "type": "Point",
        "coordinates": [
          44.579595740842855,
          -17.936651270858732
        ]
      }
    }
  ]
}